{
    "week": 289,
    "satellites": [
        {
            "Name": "GSAT0218 (GALILEO 22)",
            "Line1": "1 43058U 17079D   24297.32746969 -.00000021  00000+0  00000+0 0  9996",
            "Line2": "2 43058  55.2870 238.0669 0004330 283.3610  76.5794  1.70473823 42724",
            "SatelliteNumber": "43058",
            "Classification": "U",
            "LaunchYear": "17",
            "LaunchNumber": "079",
            "PieceOfLaunch": "D",
            "EpochYear": "24",
            "EpochDay": 297.32746969,
            "FirstDerivativeMeanMotion": -2.1e-07,
            "SecondDerivativeMeanMotion": "00000+0",
            "BSTAR": "00000+0",
            "SetNumber": "999",
            "Inclination": 55.287,
            "RAAN": 238.0669,
            "Eccentricity": 0.000433,
            "ArgumentOfPerigee": 283.361,
            "MeanAnomaly": 76.5794,
            "MeanMotion": 1.70473823,
            "RevolutionNumber": "4272"
        },
        {
            "Name": "GSAT0221 (GALILEO 25)",
            "Line1": "1 43564U 18060A   24296.64208973 -.00000105  00000+0  00000+0 0  9994",
            "Line2": "2 43564  57.2980 358.0381 0004936 263.7855  96.2127  1.70476118 38891",
            "SatelliteNumber": "43564",
            "Classification": "U",
            "LaunchYear": "18",
            "LaunchNumber": "060",
            "PieceOfLaunch": "A",
            "EpochYear": "24",
            "EpochDay": 296.64208973,
            "FirstDerivativeMeanMotion": -1.05e-06,
            "SecondDerivativeMeanMotion": "00000+0",
            "BSTAR": "00000+0",
            "SetNumber": "999",
            "Inclination": 57.298,
            "RAAN": 358.0381,
            "Eccentricity": 0.0004936,
            "ArgumentOfPerigee": 263.7855,
            "MeanAnomaly": 96.2127,
            "MeanMotion": 1.70476118,
            "RevolutionNumber": "3889"
        },
        {
            "Name": "GSAT0222 (GALILEO 26)",
            "Line1": "1 43565U 18060B   24297.44737261 -.00000106  00000+0  00000+0 0  9992",
            "Line2": "2 43565  57.3014 358.0184 0004813 236.8990 123.1084  1.70475915 38950",
            "SatelliteNumber": "43565",
            "Classification": "U",
            "LaunchYear": "18",
            "LaunchNumber": "060",
            "PieceOfLaunch": "B",
            "EpochYear": "24",
            "EpochDay": 297.44737261,
            "FirstDerivativeMeanMotion": -1.06e-06,
            "SecondDerivativeMeanMotion": "00000+0",
            "BSTAR": "00000+0",
            "SetNumber": "999",
            "Inclination": 57.3014,
            "RAAN": 358.0184,
            "Eccentricity": 0.0004813,
            "ArgumentOfPerigee": 236.899,
            "MeanAnomaly": 123.1084,
            "MeanMotion": 1.70475915,
            "RevolutionNumber": "3895"
        },
        {
            "Name": "GSAT0219 (GALILEO 23)",
            "Line1": "1 43566U 18060C   24295.32273194 -.00000102  00000+0  00000+0 0  9994",
            "Line2": "2 43566  57.3005 358.0776 0004371 267.3968  92.6098  1.70476147 38897",
            "SatelliteNumber": "43566",
            "Classification": "U",
            "LaunchYear": "18",
            "LaunchNumber": "060",
            "PieceOfLaunch": "C",
            "EpochYear": "24",
            "EpochDay": 295.32273194,
            "FirstDerivativeMeanMotion": -1.02e-06,
            "SecondDerivativeMeanMotion": "00000+0",
            "BSTAR": "00000+0",
            "SetNumber": "999",
            "Inclination": 57.3005,
            "RAAN": 358.0776,
            "Eccentricity": 0.0004371,
            "ArgumentOfPerigee": 267.3968,
            "MeanAnomaly": 92.6098,
            "MeanMotion": 1.70476147,
            "RevolutionNumber": "3889"
        },
        {
            "Name": "GSAT0220 (GALILEO 24)",
            "Line1": "1 43567U 18060D   24296.13003630 -.00000104  00000+0  00000+0 0  9993",
            "Line2": "2 43567  57.3002 358.0555 0004417 263.9643  96.0406  1.70476042 38898",
            "SatelliteNumber": "43567",
            "Classification": "U",
            "LaunchYear": "18",
            "LaunchNumber": "060",
            "PieceOfLaunch": "D",
            "EpochYear": "24",
            "EpochDay": 296.1300363,
            "FirstDerivativeMeanMotion": -1.04e-06,
            "SecondDerivativeMeanMotion": "00000+0",
            "BSTAR": "00000+0",
            "SetNumber": "999",
            "Inclination": 57.3002,
            "RAAN": 358.0555,
            "Eccentricity": 0.0004417,
            "ArgumentOfPerigee": 263.9643,
            "MeanAnomaly": 96.0406,
            "MeanMotion": 1.70476042,
            "RevolutionNumber": "3889"
        },
        {
            "Name": "GSAT0223 (GALILEO 27)",
            "Line1": "1 49809U 21116A   24292.46719778 -.00000093  00000+0  00000+0 0  9990",
            "Line2": "2 49809  57.2911 358.0484 0004054 216.5220 146.0340  1.70475858 17843",
            "SatelliteNumber": "49809",
            "Classification": "U",
            "LaunchYear": "21",
            "LaunchNumber": "116",
            "PieceOfLaunch": "A",
            "EpochYear": "24",
            "EpochDay": 292.46719778,
            "FirstDerivativeMeanMotion": -9.3e-07,
            "SecondDerivativeMeanMotion": "00000+0",
            "BSTAR": "00000+0",
            "SetNumber": "999",
            "Inclination": 57.2911,
            "RAAN": 358.0484,
            "Eccentricity": 0.0004054,
            "ArgumentOfPerigee": 216.522,
            "MeanAnomaly": 146.034,
            "MeanMotion": 1.70475858,
            "RevolutionNumber": "1784"
        },
        {
            "Name": "GSAT0224 (GALILEO 28)",
            "Line1": "1 49810U 21116B   24297.56974373 -.00000106  00000+0  00000+0 0  9997",
            "Line2": "2 49810  57.2913 357.9086 0003422 219.7636 146.8608  1.70476279 17941",
            "SatelliteNumber": "49810",
            "Classification": "U",
            "LaunchYear": "21",
            "LaunchNumber": "116",
            "PieceOfLaunch": "B",
            "EpochYear": "24",
            "EpochDay": 297.56974373,
            "FirstDerivativeMeanMotion": -1.06e-06,
            "SecondDerivativeMeanMotion": "00000+0",
            "BSTAR": "00000+0",
            "SetNumber": "999",
            "Inclination": 57.2913,
            "RAAN": 357.9086,
            "Eccentricity": 0.0003422,
            "ArgumentOfPerigee": 219.7636,
            "MeanAnomaly": 146.8608,
            "MeanMotion": 1.70476279,
            "RevolutionNumber": "1794"
        },
        {
            "Name": "GSAT0225 (GALILEO 29)",
            "Line1": "1 59598U 24079A   24296.40429417  .00000039  00000+0  00000+0 0  9992",
            "Line2": "2 59598  54.7658 117.9470 0002496 157.7248 204.5248  1.70474502  3027",
            "SatelliteNumber": "59598",
            "Classification": "U",
            "LaunchYear": "24",
            "LaunchNumber": "079",
            "PieceOfLaunch": "A",
            "EpochYear": "24",
            "EpochDay": 296.40429417,
            "FirstDerivativeMeanMotion": 3.9e-07,
            "SecondDerivativeMeanMotion": "00000+0",
            "BSTAR": "00000+0",
            "SetNumber": "999",
            "Inclination": 54.7658,
            "RAAN": 117.947,
            "Eccentricity": 0.0002496,
            "ArgumentOfPerigee": 157.7248,
            "MeanAnomaly": 204.5248,
            "MeanMotion": 1.70474502,
            "RevolutionNumber": "302"
        },
        {
            "Name": "GSAT0227 (GALILEO 30)",
            "Line1": "1 59600U 24079C   24295.41085394  .00000037  00000+0  00000+0 0  9996",
            "Line2": "2 59600  54.7602 117.9759 0003799 111.9842 248.0937  1.70474421  3072",
            "SatelliteNumber": "59600",
            "Classification": "U",
            "LaunchYear": "24",
            "LaunchNumber": "079",
            "PieceOfLaunch": "C",
            "EpochYear": "24",
            "EpochDay": 295.41085394,
            "FirstDerivativeMeanMotion": 3.7e-07,
            "SecondDerivativeMeanMotion": "00000+0",
            "BSTAR": "00000+0",
            "SetNumber": "999",
            "Inclination": 54.7602,
            "RAAN": 117.9759,
            "Eccentricity": 0.0003799,
            "ArgumentOfPerigee": 111.9842,
            "MeanAnomaly": 248.0937,
            "MeanMotion": 1.70474421,
            "RevolutionNumber": "307"
        },
        {
            "Name": "GSAT0232 (GALILEO 32)",
            "Line1": "1 61182U 24167A   24296.96488359 -.00000018  00000+0  00000+0 0  9991",
            "Line2": "2 61182  55.4000 237.8258 0016560 274.4176  85.3830  1.73176882   604",
            "SatelliteNumber": "61182",
            "Classification": "U",
            "LaunchYear": "24",
            "LaunchNumber": "167",
            "PieceOfLaunch": "A",
            "EpochYear": "24",
            "EpochDay": 296.96488359,
            "FirstDerivativeMeanMotion": -1.8e-07,
            "SecondDerivativeMeanMotion": "00000+0",
            "BSTAR": "00000+0",
            "SetNumber": "999",
            "Inclination": 55.4,
            "RAAN": 237.8258,
            "Eccentricity": 0.001656,
            "ArgumentOfPerigee": 274.4176,
            "MeanAnomaly": 85.383,
            "MeanMotion": 1.73176882,
            "RevolutionNumber": "60"
        }
    ]
}